ONEWEB-0183             
1 48219U 21031K   25229.63393977  .00000292  00000+0  75426-3 0  9997
2 48219  87.9085 350.1336 0001951 104.1689 255.9657 13.14505009208444
ONEWEB-0185             
1 48220U 21031L   25229.58399116 -.00000100  00000+0 -30370-3 0  9993
2 48220  87.9087 350.1090 0001817 113.2510 246.8811 13.14502648208368
ONEWEB-0187             
1 48221U 21031M   25229.56403658  .00000258  00000+0  66023-3 0  9995
2 48221  87.9086 350.1598 0001653 107.3756 252.7555 13.14503394208376
ONEWEB-0192             
1 48222U 21031N   25229.61015927 -.00000068  00000+0 -21764-3 0  9994
2 48222  87.9084 350.1443 0001798  97.9147 262.2187 13.14502087208298
ONEWEB-0219             
1 48223U 21031P   25229.58953397 -.00000121  00000+0 -35997-3 0  9996
2 48223  87.9089 350.1204 0001732 108.3195 251.8124 13.14501904208491
ONEWEB-0202             
1 48224U 21031Q   25229.57050716  .00000153  00000+0  37724-3 0  9992
2 48224  87.9091 350.1385 0001108  88.2542 271.8714 13.14501684208474
ONEWEB-0204             
1 48225U 21031R   25229.60460779 -.00000117  00000+0 -35041-3 0  9993
2 48225  87.9074 350.1245 0002062 104.2298 255.9061 13.14502240208374
ONEWEB-0205             
1 48226U 21031S   25229.58002876 -.00000050  00000+0 -16803-3 0  9992
2 48226  87.9081 350.1186 0001722 104.8297 255.3024 13.14503701208381
ONEWEB-0206             
1 48227U 21031T   25228.41130228  .00000246  00000+0  62929-3 0  9992
2 48227  87.9086 350.3309 0001833 101.6405 258.4931 13.14501549208182
ONEWEB-0182             
1 48228U 21031U   25229.62443801  .00000211  00000+0  53435-3 0  9995
2 48228  87.9088 350.1349 0001954 104.0715 256.0632 13.14504397208559
ONEWEB-0186             
1 48229U 21031V   25229.33106986  .00000281  00000+0  72471-3 0  9992
2 48229  87.9088 350.1544 0001755 101.6301 258.5026 13.14502860208467
ONEWEB-0181             
1 48230U 21031W   25229.61333195 -.00000086  00000+0 -26693-3 0  9999
2 48230  87.9084 350.1713 0001649  98.5737 261.5580 13.14501593208351
ONEWEB-0188             
1 48231U 21031X   25229.57526488  .00000032  00000+0  52984-4 0  9996
2 48231  87.9091 350.1692 0001821 100.7554 259.3781 13.14501512208259
ONEWEB-0220             
1 48232U 21031Y   25229.61491656  .00000158  00000+0  39079-3 0  9998
2 48232  87.9084 350.1009 0001739 106.9852 253.1469 13.14504940208524
ONEWEB-0165             
1 48233U 21031Z   25229.56734169  .00000236  00000+0  60219-3 0  9999
2 48233  87.9078 350.1538 0001679 105.7657 254.3658 13.14503658208470
ONEWEB-0199             
1 48234U 21031AA  25229.62760262  .00000236  00000+0  60282-3 0  9990
2 48234  87.9091 350.1062 0001930  95.4328 264.7022 13.14501678208388
ONEWEB-0203             
1 48235U 21031AB  25229.61809719  .00000136  00000+0  33199-3 0  9997
2 48235  87.9078 350.1101 0001735  91.1805 268.9524 13.14503003208392
