[{"OBJECT_NAME":"ONEWEB-0183","OBJECT_ID":"2021-031K","EPOCH":"2025-08-17T15:12:52.396128","MEAN_MOTION":13.14505009,"ECCENTRICITY":0.0001951,"INCLINATION":87.9085,"RA_OF_ASC_NODE":350.1336,"ARG_OF_PERICENTER":104.1689,"MEAN_ANOMALY":255.9657,"EPHEMERIS_TYPE":0,"CLASSIFICATION_TYPE":"U","NORAD_CAT_ID":48219,"ELEMENT_SET_NO":999,"REV_AT_EPOCH":20844,"BSTAR":0.00075426,"MEAN_MOTION_DOT":2.92e-6,"MEAN_MOTION_DDOT":0},{"OBJECT_NAME":"ONEWEB-0185","OBJECT_ID":"2021-031L","EPOCH":"2025-08-17T14:00:56.836224","MEAN_MOTION":13.14502648,"ECCENTRICITY":0.0001817,"INCLINATION":87.9087,"RA_OF_ASC_NODE":350.109,"ARG_OF_PERICENTER":113.251,"MEAN_ANOMALY":246.8811,"EPHEMERIS_TYPE":0,"CLASSIFICATION_TYPE":"U","NORAD_CAT_ID":48220,"ELEMENT_SET_NO":999,"REV_AT_EPOCH":20836,"BSTAR":-0.0003037,"MEAN_MOTION_DOT":-1.0e-6,"MEAN_MOTION_DDOT":0},{"OBJECT_NAME":"ONEWEB-0187","OBJECT_ID":"2021-031M","EPOCH":"2025-08-17T13:32:12.760512","MEAN_MOTION":13.14503394,"ECCENTRICITY":0.0001653,"INCLINATION":87.9086,"RA_OF_ASC_NODE":350.1598,"ARG_OF_PERICENTER":107.3756,"MEAN_ANOMALY":252.7555,"EPHEMERIS_TYPE":0,"CLASSIFICATION_TYPE":"U","NORAD_CAT_ID":48221,"ELEMENT_SET_NO":999,"REV_AT_EPOCH":20837,"BSTAR":0.00066023,"MEAN_MOTION_DOT":2.58e-6,"MEAN_MOTION_DDOT":0},{"OBJECT_NAME":"ONEWEB-0192","OBJECT_ID":"2021-031N","EPOCH":"2025-08-17T14:38:37.760928","MEAN_MOTION":13.14502087,"ECCENTRICITY":0.0001798,"INCLINATION":87.9084,"RA_OF_ASC_NODE":350.1443,"ARG_OF_PERICENTER":97.9147,"MEAN_ANOMALY":262.2187,"EPHEMERIS_TYPE":0,"CLASSIFICATION_TYPE":"U","NORAD_CAT_ID":48222,"ELEMENT_SET_NO":999,"REV_AT_EPOCH":20829,"BSTAR":-0.00021764,"MEAN_MOTION_DOT":-6.8e-7,"MEAN_MOTION_DDOT":0},{"OBJECT_NAME":"ONEWEB-0219","OBJECT_ID":"2021-031P","EPOCH":"2025-08-17T14:08:55.735008","MEAN_MOTION":13.14501904,"ECCENTRICITY":0.0001732,"INCLINATION":87.9089,"RA_OF_ASC_NODE":350.1204,"ARG_OF_PERICENTER":108.3195,"MEAN_ANOMALY":251.8124,"EPHEMERIS_TYPE":0,"CLASSIFICATION_TYPE":"U","NORAD_CAT_ID":48223,"ELEMENT_SET_NO":999,"REV_AT_EPOCH":20849,"BSTAR":-0.00035997,"MEAN_MOTION_DOT":-1.21e-6,"MEAN_MOTION_DDOT":0},{"OBJECT_NAME":"ONEWEB-0202","OBJECT_ID":"2021-031Q","EPOCH":"2025-08-17T13:41:31.818624","MEAN_MOTION":13.14501684,"ECCENTRICITY":0.0001108,"INCLINATION":87.9091,"RA_OF_ASC_NODE":350.1385,"ARG_OF_PERICENTER":88.2542,"MEAN_ANOMALY":271.8714,"EPHEMERIS_TYPE":0,"CLASSIFICATION_TYPE":"U","NORAD_CAT_ID":48224,"ELEMENT_SET_NO":999,"REV_AT_EPOCH":20847,"BSTAR":0.00037724,"MEAN_MOTION_DOT":1.53e-6,"MEAN_MOTION_DDOT":0},{"OBJECT_NAME":"ONEWEB-0204","OBJECT_ID":"2021-031R","EPOCH":"2025-08-17T14:30:38.113056","MEAN_MOTION":13.1450224,"ECCENTRICITY":0.0002062,"INCLINATION":87.9074,"RA_OF_ASC_NODE":350.1245,"ARG_OF_PERICENTER":104.2298,"MEAN_ANOMALY":255.9061,"EPHEMERIS_TYPE":0,"CLASSIFICATION_TYPE":"U","NORAD_CAT_ID":48225,"ELEMENT_SET_NO":999,"REV_AT_EPOCH":20837,"BSTAR":-0.00035041,"MEAN_MOTION_DOT":-1.17e-6,"MEAN_MOTION_DDOT":0},{"OBJECT_NAME":"ONEWEB-0205","OBJECT_ID":"2021-031S","EPOCH":"2025-08-17T13:55:14.484864","MEAN_MOTION":13.14503701,"ECCENTRICITY":0.0001722,"INCLINATION":87.9081,"RA_OF_ASC_NODE":350.1186,"ARG_OF_PERICENTER":104.8297,"MEAN_ANOMALY":255.3024,"EPHEMERIS_TYPE":0,"CLASSIFICATION_TYPE":"U","NORAD_CAT_ID":48226,"ELEMENT_SET_NO":999,"REV_AT_EPOCH":20838,"BSTAR":-0.00016803,"MEAN_MOTION_DOT":-5.0e-7,"MEAN_MOTION_DDOT":0},{"OBJECT_NAME":"ONEWEB-0206","OBJECT_ID":"2021-031T","EPOCH":"2025-08-16T09:52:16.516992","MEAN_MOTION":13.14501549,"ECCENTRICITY":0.0001833,"INCLINATION":87.9086,"RA_OF_ASC_NODE":350.3309,"ARG_OF_PERICENTER":101.6405,"MEAN_ANOMALY":258.4931,"EPHEMERIS_TYPE":0,"CLASSIFICATION_TYPE":"U","NORAD_CAT_ID":48227,"ELEMENT_SET_NO":999,"REV_AT_EPOCH":20818,"BSTAR":0.00062929,"MEAN_MOTION_DOT":2.46e-6,"MEAN_MOTION_DDOT":0},{"OBJECT_NAME":"ONEWEB-0182","OBJECT_ID":"2021-031U","EPOCH":"2025-08-17T14:59:11.444064","MEAN_MOTION":13.14504397,"ECCENTRICITY":0.0001954,"INCLINATION":87.9088,"RA_OF_ASC_NODE":350.1349,"ARG_OF_PERICENTER":104.0715,"MEAN_ANOMALY":256.0632,"EPHEMERIS_TYPE":0,"CLASSIFICATION_TYPE":"U","NORAD_CAT_ID":48228,"ELEMENT_SET_NO":999,"REV_AT_EPOCH":20855,"BSTAR":0.00053435,"MEAN_MOTION_DOT":2.11e-6,"MEAN_MOTION_DDOT":0},{"OBJECT_NAME":"ONEWEB-0186","OBJECT_ID":"2021-031V","EPOCH":"2025-08-17T07:56:44.435904","MEAN_MOTION":13.1450286,"ECCENTRICITY":0.0001755,"INCLINATION":87.9088,"RA_OF_ASC_NODE":350.1544,"ARG_OF_PERICENTER":101.6301,"MEAN_ANOMALY":258.5026,"EPHEMERIS_TYPE":0,"CLASSIFICATION_TYPE":"U","NORAD_CAT_ID":48229,"ELEMENT_SET_NO":999,"REV_AT_EPOCH":20846,"BSTAR":0.00072471,"MEAN_MOTION_DOT":2.81e-6,"MEAN_MOTION_DDOT":0},{"OBJECT_NAME":"ONEWEB-0181","OBJECT_ID":"2021-031W","EPOCH":"2025-08-17T14:43:11.880480","MEAN_MOTION":13.14501593,"ECCENTRICITY":0.0001649,"INCLINATION":87.9084,"RA_OF_ASC_NODE":350.1713,"ARG_OF_PERICENTER":98.5737,"MEAN_ANOMALY":261.558,"EPHEMERIS_TYPE":0,"CLASSIFICATION_TYPE":"U","NORAD_CAT_ID":48230,"ELEMENT_SET_NO":999,"REV_AT_EPOCH":20835,"BSTAR":-0.00026693,"MEAN_MOTION_DOT":-8.6e-7,"MEAN_MOTION_DDOT":0},{"OBJECT_NAME":"ONEWEB-0188","OBJECT_ID":"2021-031X","EPOCH":"2025-08-17T13:48:22.885632","MEAN_MOTION":13.14501512,"ECCENTRICITY":0.0001821,"INCLINATION":87.9091,"RA_OF_ASC_NODE":350.1692,"ARG_OF_PERICENTER":100.7554,"MEAN_ANOMALY":259.3781,"EPHEMERIS_TYPE":0,"CLASSIFICATION_TYPE":"U","NORAD_CAT_ID":48231,"ELEMENT_SET_NO":999,"REV_AT_EPOCH":20825,"BSTAR":5.2984e-5,"MEAN_MOTION_DOT":3.2e-7,"MEAN_MOTION_DDOT":0},{"OBJECT_NAME":"ONEWEB-0220","OBJECT_ID":"2021-031Y","EPOCH":"2025-08-17T14:45:28.790784","MEAN_MOTION":13.1450494,"ECCENTRICITY":0.0001739,"INCLINATION":87.9084,"RA_OF_ASC_NODE":350.1009,"ARG_OF_PERICENTER":106.9852,"MEAN_ANOMALY":253.1469,"EPHEMERIS_TYPE":0,"CLASSIFICATION_TYPE":"U","NORAD_CAT_ID":48232,"ELEMENT_SET_NO":999,"REV_AT_EPOCH":20852,"BSTAR":0.00039079,"MEAN_MOTION_DOT":1.58e-6,"MEAN_MOTION_DDOT":0},{"OBJECT_NAME":"ONEWEB-0165","OBJECT_ID":"2021-031Z","EPOCH":"2025-08-17T13:36:58.322016","MEAN_MOTION":13.14503658,"ECCENTRICITY":0.0001679,"INCLINATION":87.9078,"RA_OF_ASC_NODE":350.1538,"ARG_OF_PERICENTER":105.7657,"MEAN_ANOMALY":254.3658,"EPHEMERIS_TYPE":0,"CLASSIFICATION_TYPE":"U","NORAD_CAT_ID":48233,"ELEMENT_SET_NO":999,"REV_AT_EPOCH":20847,"BSTAR":0.00060219,"MEAN_MOTION_DOT":2.36e-6,"MEAN_MOTION_DDOT":0},{"OBJECT_NAME":"ONEWEB-0199","OBJECT_ID":"2021-031AA","EPOCH":"2025-08-17T15:03:44.866368","MEAN_MOTION":13.14501678,"ECCENTRICITY":0.000193,"INCLINATION":87.9091,"RA_OF_ASC_NODE":350.1062,"ARG_OF_PERICENTER":95.4328,"MEAN_ANOMALY":264.7022,"EPHEMERIS_TYPE":0,"CLASSIFICATION_TYPE":"U","NORAD_CAT_ID":48234,"ELEMENT_SET_NO":999,"REV_AT_EPOCH":20838,"BSTAR":0.00060282,"MEAN_MOTION_DOT":2.36e-6,"MEAN_MOTION_DDOT":0},{"OBJECT_NAME":"ONEWEB-0203","OBJECT_ID":"2021-031AB","EPOCH":"2025-08-17T14:50:03.597216","MEAN_MOTION":13.14503003,"ECCENTRICITY":0.0001735,"INCLINATION":87.9078,"RA_OF_ASC_NODE":350.1101,"ARG_OF_PERICENTER":91.1805,"MEAN_ANOMALY":268.9524,"EPHEMERIS_TYPE":0,"CLASSIFICATION_TYPE":"U","NORAD_CAT_ID":48235,"ELEMENT_SET_NO":999,"REV_AT_EPOCH":20839,"BSTAR":0.00033199,"MEAN_MOTION_DOT":1.36e-6,"MEAN_MOTION_DDOT":0}]
